LEMUR-1                 
1 40044U 14033AL  22320.78096535  .00001046  00000+0  15772-3 0  9990
2 40044  97.6573 141.1546 0058641  26.9016 333.5214 14.75217746451938
LEMUR-2-XIAOQING        
1 41871U 16062C   22321.42492454  .00036777  00000+0  72618-3 0  9996
2 41871  51.6331 324.3723 0005357  86.1637 273.9963 15.46779705333545
LEMUR-2-SOKOLSKY        
1 41872U 16062D   22321.08164731  .00039216  00000+0  78354-3 0  9997
2 41872  51.6775 336.6238 0003307  24.9514 335.1633 15.46415125333450
LEMUR-2-ANUBHAVTHAKUR   
1 41873U 16062E   22321.46576958  .00009159  00000+0  32007-3 0  9996
2 41873  51.6805  27.3445 0007340  97.0218 263.1598 15.30251378332744
LEMUR-2-WINGO           
1 41874U 16062F   22320.75279374  .00029122  00000+0  61537-3 0  9992
2 41874  51.6463 339.4837 0011574  48.5875 311.6105 15.44862473333294
LEMUR-2-JOBANPUTRA      
1 41991U 17008AV  22320.65874383  .00019349  00000+0  51634-3 0  9990
2 41991  97.2413  19.5031 0006831  60.7250 299.4677 15.38142061319524
LEMUR-2-SPIRE-MINIONS   
1 41992U 17008AW  22320.68987301  .00028197  00000+0  62831-3 0  9991
2 41992  97.2494  24.8413 0004996  47.4587 312.7083 15.43551397319827
LEMUR-2-SATCHMO         
1 41993U 17008AX  22320.75906349  .00017386  00000+0  49322-3 0  9991
2 41993  97.2413  19.8977 0006790  60.7056 299.4866 15.36261586319551
LEMUR-2-SMITA-SHARAD    
1 41994U 17008AY  22320.80669879  .00032353  00000+0  72135-3 0  9991
2 41994  97.2485  24.7111 0005044  50.0288 310.1403 15.43505707319839
LEMUR-2-RDEATON         
1 41995U 17008AZ  22320.74269868  .00013135  00000+0  38004-3 0  9993
2 41995  97.2460  20.1173 0007838  69.3152 290.8931 15.35699022320238
LEMUR-2-TACHIKOMA       
1 41996U 17008BA  22320.74234127  .00019565  00000+0  45575-3 0  9998
2 41996  97.2542  24.8557 0006432  64.5663 295.6249 15.42286872319696
LEMUR-2-NOGUECORREIG    
1 41997U 17008BB  22320.70481496  .00027738  00000+0  61568-3 0  9999
2 41997  97.2512  25.3954 0006020  59.8882 300.2962 15.43664436319832
LEMUR-2-MIA-GRACE       
1 41998U 17008BC  22321.14626710  .00014046  00000+0  40661-3 0  9998
2 41998  97.2432  20.0498 0007645  70.5146 289.6923 15.35668705319512
LEMUR-2-ANGELA          
1 42752U 17019B   22321.12535613  .00039672  00000+0  65910-3 0  9994
2 42752  51.6294 209.5583 0005766 213.3894 146.6732 15.51668374304793
LEMUR-2-JENNYBARNA      
1 42753U 17019C   22321.29896722  .00208026  00000+0  10789-2 0  9998
2 42753  51.6193 167.5607 0008556 224.5454 135.4860 15.79825113305322
LEMUR-2-ROBMOORE        
1 42754U 17019D   22321.08011081  .00033419  00000+0  60410-3 0  9992
2 42754  51.6310 212.2066 0004330 220.3107 139.7561 15.49372375304739
LEMUR-2-SPIROVISION     
1 42755U 17019E   22321.14715341  .00186379  00000+0  11210-2 0  9997
2 42755  51.6260 169.9976 0007211 221.0225 229.8930 15.76599589305192
LEMUR-2-SHAINAJOHL      
1 42771U 17036G   22321.08233455  .00018357  00000+0  53001-3 0  9993
2 42771  97.1841 358.5038 0011882 124.8215 235.4149 15.35649646300367
LEMUR-2-XUENITERENCE    
1 42772U 17036H   22321.00347944  .00025814  00000+0  68391-3 0  9999
2 42772  97.1732 358.7323 0010879 119.2372 240.9963 15.38269460300419
LEMUR-2-LUCYBRYCE       
1 42773U 17036J   22320.67094605  .00018415  00000+0  57664-3 0  9995
2 42773  97.1877 357.9731 0011944 127.9730 232.2594 15.33079026300249
LEMUR-2-KUNGFOO         
1 42774U 17036K   22321.37687053  .00017288  00000+0  49297-3 0  9999
2 42774  97.1835 359.2854 0011270 120.8593 239.3762 15.36060489300438
LEMUR-2-LYNSEY-SYMO     
1 42779U 17036Q   22321.35234640  .00022385  00000+0  56364-3 0  9999
2 42779  97.1855   4.3409 0009657 120.2263 239.9941 15.39873261300712
LEMUR-2-LISASAURUS      
1 42780U 17036R   22320.62051975  .00023971  00000+0  66897-3 0  9992
2 42780  97.1845 359.7414 0009784 130.0583 230.1521 15.36683827300363
LEMUR-2-SAM-AMELIA      
1 42781U 17036S   22320.99839182  .00009757  00000+0  31656-3 0  9998
2 42781  97.1876   0.4538 0010854 130.3176 229.9016 15.32104322300411
LEMUR-2-MCPEAKE         
1 42782U 17036T   22320.67948173  .00017407  00000+0  48880-3 0  9993
2 42782  97.1848   1.5819 0009850 124.2604 235.9575 15.36554540300497
LEMUR-2-GREENBERG       
1 42837U 17042N   22320.83705920  .00002501  00000+0  23647-3 0  9993
2 42837  97.4084 170.0125 0011620 201.0993 158.9750 14.94468287291020
LEMUR-2-ANDIS           
1 42838U 17042P   22320.83170415  .00002472  00000+0  23357-3 0  9994
2 42838  97.4069 169.9330 0011673 200.3440 159.7318 14.94505404291028
LEMUR-2-MONSON          
1 42839U 17042Q   22320.53913025  .00003462  00000+0  32719-3 0  9996
2 42839  97.4085 169.3956 0011376 200.4679 159.6088 14.94256687290950
LEMUR-2-FURIAUS         
1 42840U 17042R   22321.02137348  .00002837  00000+0  27153-3 0  9990
2 42840  97.4122 170.2024 0011702 200.7911 159.2836 14.93889597291023
LEMUR-2-PETERG          
1 42841U 17042S   22321.35898904  .00002539  00000+0  24150-3 0  9992
2 42841  97.4143 171.7081 0011295 194.8216 165.2676 14.94221882291144
LEMUR-2-DEMBITZ         
1 42842U 17042T   22320.84167343  .00002607  00000+0  24506-3 0  9993
2 42842  97.4110 171.1022 0011411 197.5761 162.5067 14.94680856291079
LEMUR-2-ZACHARY         
1 42845U 17042W   22321.03960240  .00003142  00000+0  28799-3 0  9998
2 42845  97.3992 170.4221 0011445 197.6498 162.4327 14.95536996291150
LEMUR-2-MCCAFFERTY      
1 43123U 18004N   22321.02796921  .00036820  00000+0  80628-3 0  9997
2 43123  97.3648  41.3106 0006032 152.3879 207.7691 15.44010741270034
LEMUR-2-PETERWEBSTER    
1 43124U 18004P   22320.78881455  .00031117  00000+0  69946-3 0  9991
2 43124  97.3646  40.5895 0006358 156.0940 204.0604 15.43264239269977
LEMUR-2-BROWNCOW        
1 43125U 18004Q   22321.16854040  .00038945  00000+0  78311-3 0  9997
2 43125  97.3714  43.2331 0005892 150.4077 209.7507 15.46509933270152
LEMUR-2-DAVEWILSON      
1 43126U 18004R   22321.11934695  .00048284  00000+0  94704-3 0  9999
2 43126  97.3687  43.0415 0005569 151.5799 208.5755 15.47188421270144
LEMUR-2-MARSHALL        
1 43165U 18010C   22321.36062720  .00018000  00000+0  54014-3 0  9990
2 43165  82.9107 280.5549 0025866 140.2341 220.0806 15.33987346267881
LEMUR-2-TALLHAMN-ATC    
1 43167U 18010E   22321.33733795  .00013698  00000+0  46851-3 0  9994
2 43167  82.9136 287.5241 0020196 163.0461 197.1460 15.29931077267456
LEMUR-2-JIN-LUEN        
1 43182U 18014C   22321.25757289  .00003660  00000+0  29578-3 0  9995
2 43182  97.6277 222.1778 0017155 148.0653 212.1614 15.00313833261792
LEMUR-2-URAMCHANSOL     
1 43183U 18014D   22320.66488733  .00004681  00000+0  37463-3 0  9991
2 43183  97.6302 221.8331 0017722 134.0199 226.2489 15.00533589261713
LEMUR-2-KADI            
1 43184U 18014E   22320.68034948  .00004744  00000+0  38625-3 0  9990
2 43184  97.6347 221.6471 0015086 133.7569 226.4906 14.99900589261704
LEMUR-2-THENICKMOLO     
1 43185U 18014F   22320.69519844  .00004313  00000+0  34884-3 0  9990
2 43185  97.6428 221.9686 0010917 134.4905 225.7213 15.00253729261710
LEMUR-2-VU              
1 43558U 18046E   22320.72780956  .00081599  00000+0  88547-3 0  9993
2 43558  51.6314 128.8847 0009275 241.0502 118.9562 15.62745801243204
LEMUR-2-ALEXANDER       
1 43559U 18046F   22320.70662063  .00155315  00000+0  12605-2 0  9999
2 43559  51.6350 124.2884 0009144 259.9653 100.0312 15.69672351243049
LEMUR-2-YUASA           
1 43560U 18046G   22320.76473786  .00131742  00000+0  11857-2 0  9995
2 43560  51.6364 127.6627 0008936 263.1859  96.8120 15.67235860243228
LEMUR-2-TOMHENDERSON    
1 43561U 18046H   22320.70967056  .00043716  00000+0  55780-3 0  9995
2 43561  51.6371 134.7502 0009482 241.7460 118.2576 15.58787445242689
LEMUR-2-ZUPANSKI        
1 43695U 18088F   22321.42542280  .00017073  00000+0  52096-3 0  9991
2 43695  85.0297 210.9590 0009019 300.0259  60.0094 15.33761324223274
LEMUR-2-CHANUSIAK       
1 43697U 18088H   22320.73910894  .00021486  00000+0  61614-3 0  9995
2 43697  85.0352 211.3677 0007305 267.9941  92.0472 15.35734148223332
LEMUR-2-ORZULAK         
1 43731U 18096N   22320.99242705  .00097482  00000+0  11534-2 0  9994
2 43731  97.3562  49.0827 0011561 221.4694 138.5687 15.60872840221873
LEMUR-2-KOBYSZCZE       
1 43732U 18096P   22321.21400662  .00092423  00000+0  10803-2 0  9997
2 43732  97.3577  49.8608 0011272 219.2624 140.7817 15.61212475221932
LEMUR-2-DULY            
1 43745U 18096AC  22321.02353081  .00071188  00000+0  97798-3 0  9996
2 43745  97.3557  48.9079 0011467 216.9676 143.0791 15.57002160221876
LEMUR-2-VLADIMIR        
1 43746U 18096AD  22320.94201699  .00152294  00000+0  13539-2 0  9992
2 43746  97.3543  50.5084 0011527 239.5304 120.4819 15.67958756221998
LEMUR-2-CHRISTINAHOLT   
1 43882U 18111G   22320.68312576  .00006096  00000+0  48366-3 0  9994
2 43882  97.6608 226.0237 0010497 113.5118 246.7211 15.00830551212585
LEMUR-2-TINYKEV         
1 43883U 18111H   22321.19010873  .00005301  00000+0  41558-3 0  9991
2 43883  97.6486 226.7422 0015807 131.9074 228.3501 15.01298676210671
LEMUR-2-REMY-COLTON     
1 43884U 18111J   22321.40602307  .00004801  00000+0  37819-3 0  9994
2 43884  97.6595 227.5191 0001913 147.5978 212.5364 15.01253580210738
LEMUR-2-GUSTAVO         
1 43885U 18111K   22320.80641995  .00004650  00000+0  36960-3 0  9992
2 43885  97.6580 226.5209 0015592 128.1918 232.0713 15.00832073210610
LEMUR-2-ZO              
1 43886U 18111L   22320.72335703  .00003712  00000+0  29535-3 0  9999
2 43886  97.6556 226.7636 0018540 161.0597 199.1320 15.00889631212616
LEMUR-2-NATALIEMURRAY   
1 43887U 18111M   22320.74020183  .00004932  00000+0  38975-3 0  9998
2 43887  97.6599 227.0926 0011474 102.3533 257.8976 15.01068084212630
LEMUR-2-SARAHBETTYBOO   
1 43888U 18111N   22320.69504754  .00005743  00000+0  45109-3 0  9992
2 43888  97.6814 227.3763 0010754 188.0191 172.0863 15.01242882212637
LEMUR-2-DAISY-HARPER    
1 43889U 18111P   22320.69100649  .00005389  00000+0  42341-3 0  9999
2 43889  97.6769 227.5575 0009105 191.4624 168.6394 15.01270322212637
